[{"OBJECT_NAME":"ONEWEB-0664","OBJECT_ID":"2023-029AE","EPOCH":"2026-03-09T15:31:42.897792","MEAN_MOTION":13.20771965,"ECCENTRICITY":0.0001137,"INCLINATION":87.9162,"RA_OF_ASC_NODE":294.3685,"ARG_OF_PERICENTER":95.6788,"MEAN_ANOMALY":264.4474,"EPHEMERIS_TYPE":0,"CLASSIFICATION_TYPE":"U","NORAD_CAT_ID":55824,"ELEMENT_SET_NO":999,"REV_AT_EPOCH":14800,"BSTAR":-0.00082688,"MEAN_MOTION_DOT":-3.23e-6,"MEAN_MOTION_DDOT":0},{"OBJECT_NAME":"FENGYUN 1C DEB","OBJECT_ID":"1999-025GS","EPOCH":"2026-03-09T16:55:34.132224","MEAN_MOTION":13.6548346,"ECCENTRICITY":0.02381679,"INCLINATION":99.4149,"RA_OF_ASC_NODE":323.0146,"ARG_OF_PERICENTER":238.2464,"MEAN_ANOMALY":195.1413,"EPHEMERIS_TYPE":0,"CLASSIFICATION_TYPE":"U","NORAD_CAT_ID":29896,"ELEMENT_SET_NO":999,"REV_AT_EPOCH":95229,"BSTAR":0.00047052736,"MEAN_MOTION_DOT":4.21e-6,"MEAN_MOTION_DDOT":0}]
